{
  "type": "FeatureCollection",
  "features": [
    {
      "type": "Feature",
      "properties": {
        "norad_id": 66575,
        "name": "STARLINK-35810",
        "group": "last-30-days",
        "lat": 11.210597302972957,
        "lon": 104.12853398384794,
        "alt_km": 413.48611004413306,
        "timestamp": "2025-12-17T17:50:17.972518+00:00",
        "meta_object_name": "STARLINK-35810",
        "meta_object_id": "2025-268U",
        "meta_epoch": "2025-12-17T00:00:02.999808",
        "meta_mean_motion": 15.50546189,
        "meta_eccentricity": 0.0001582,
        "meta_inclination": 43.0008,
        "meta_ra_of_asc_node": 96.1968,
        "meta_arg_of_pericenter": 270.7248,
        "meta_mean_anomaly": 272.2364,
        "meta_ephemeris_type": 0,
        "meta_classification_type": "U",
        "meta_norad_cat_id": 66575,
        "meta_element_set_no": 999,
        "meta_rev_at_epoch": 535,
        "meta_bstar": 0.00017629698,
        "meta_mean_motion_dot": 0.00010002,
        "meta_mean_motion_ddot": 0,
        "tle_line1": "1 66575U 25268U   25351.00003472  .00010002  00000+0  17630-3 0  9996",
        "tle_line2": "2 66575  43.0008  96.1968 0001582 270.7248 272.2364 15.50546189  5354"
      },
      "geometry": {
        "type": "Point",
        "coordinates": [
          104.12853398384794,
          11.210597302972957
        ]
      }
    },
    {
      "type": "Feature",
      "properties": {
        "norad_id": 66576,
        "name": "STARLINK-35814",
        "group": "last-30-days",
        "lat": 14.133139585431612,
        "lon": 107.51571501614997,
        "alt_km": 412.3633351667959,
        "timestamp": "2025-12-17T17:50:17.972529+00:00",
        "meta_object_name": "STARLINK-35814",
        "meta_object_id": "2025-268V",
        "meta_epoch": "2025-12-17T06:56:14.825472",
        "meta_mean_motion": 15.52102983,
        "meta_eccentricity": 0.00080554,
        "meta_inclination": 43.0041,
        "meta_ra_of_asc_node": 94.5045,
        "meta_arg_of_pericenter": 236.9749,
        "meta_mean_anomaly": 123.0338,
        "meta_ephemeris_type": 0,
        "meta_classification_type": "U",
        "meta_norad_cat_id": 66576,
        "meta_element_set_no": 999,
        "meta_rev_at_epoch": 533,
        "meta_bstar": 0.0013110247,
        "meta_mean_motion_dot": 0.00081822,
        "meta_mean_motion_ddot": 0,
        "tle_line1": "1 66576U 25268V   25351.28906048  .00081822  00000+0  13110-2 0  9994",
        "tle_line2": "2 66576  43.0041  94.5045 0008055 236.9749 123.0338 15.52102983  5336"
      },
      "geometry": {
        "type": "Point",
        "coordinates": [
          107.51571501614997,
          14.133139585431612
        ]
      }
    },
    {
      "type": "Feature",
      "properties": {
        "norad_id": 66577,
        "name": "STARLINK-35815",
        "group": "last-30-days",
        "lat": 13.789296993016658,
        "lon": 107.11094934666262,
        "alt_km": 412.63630139220913,
        "timestamp": "2025-12-17T17:50:17.972539+00:00",
        "meta_object_name": "STARLINK-35815",
        "meta_object_id": "2025-268W",
        "meta_epoch": "2025-12-17T06:55:45.230016",
        "meta_mean_motion": 15.50614762,
        "meta_eccentricity": 5.558e-05,
        "meta_inclination": 42.9969,
        "meta_ra_of_asc_node": 94.4986,
        "meta_arg_of_pericenter": 117.6284,
        "meta_mean_anomaly": 242.4632,
        "meta_ephemeris_type": 0,
        "meta_classification_type": "U",
        "meta_norad_cat_id": 66577,
        "meta_element_set_no": 999,
        "meta_rev_at_epoch": 533,
        "meta_bstar": 0.0010581413,
        "meta_mean_motion_dot": 0.00062309,
        "meta_mean_motion_ddot": 0,
        "tle_line1": "1 66577U 25268W   25351.28871794  .00062309  00000+0  10581-2 0  9992",
        "tle_line2": "2 66577  42.9969  94.4986 0000555 117.6284 242.4632 15.50614762  5337"
      },
      "geometry": {
        "type": "Point",
        "coordinates": [
          107.11094934666262,
          13.789296993016658
        ]
      }
    },
    {
      "type": "Feature",
      "properties": {
        "norad_id": 66578,
        "name": "STARLINK-35743",
        "group": "last-30-days",
        "lat": 15.138689150144849,
        "lon": 108.71469401208574,
        "alt_km": 412.20696338550533,
        "timestamp": "2025-12-17T17:50:17.972551+00:00",
        "meta_object_name": "STARLINK-35743",
        "meta_object_id": "2025-268X",
        "meta_epoch": "2025-12-17T06:55:14.457792",
        "meta_mean_motion": 15.50648449,
        "meta_eccentricity": 3.513e-05,
        "meta_inclination": 42.9978,
        "meta_ra_of_asc_node": 94.4975,
        "meta_arg_of_pericenter": 293.5476,
        "meta_mean_anomaly": 66.5347,
        "meta_ephemeris_type": 0,
        "meta_classification_type": "U",
        "meta_norad_cat_id": 66578,
        "meta_element_set_no": 999,
        "meta_rev_at_epoch": 533,
        "meta_bstar": 0.0013255092,
        "meta_mean_motion_dot": 0.00078396,
        "meta_mean_motion_ddot": 0,
        "tle_line1": "1 66578U 25268X   25351.28836178  .00078396  00000+0  13255-2 0  9994",
        "tle_line2": "2 66578  42.9978  94.4975 0000351 293.5476  66.5347 15.50648449  5334"
      },
      "geometry": {
        "type": "Point",
        "coordinates": [
          108.71469401208574,
          15.138689150144849
        ]
      }
    },
    {
      "type": "Feature",
      "properties": {
        "norad_id": 66579,
        "name": "STARLINK-35868",
        "group": "last-30-days",
        "lat": 16.609133455880063,
        "lon": 110.49620191572652,
        "alt_km": 411.56023632907363,
        "timestamp": "2025-12-17T17:50:17.972562+00:00",
        "meta_object_name": "STARLINK-35868",
        "meta_object_id": "2025-268Y",
        "meta_epoch": "2025-12-16T15:27:10.423296",
        "meta_mean_motion": 15.50637405,
        "meta_eccentricity": 6.528e-05,
        "meta_inclination": 43,
        "meta_ra_of_asc_node": 98.2605,
        "meta_arg_of_pericenter": 323.6291,
        "meta_mean_anomaly": 36.4525,
        "meta_ephemeris_type": 0,
        "meta_classification_type": "U",
        "meta_norad_cat_id": 66579,
        "meta_element_set_no": 999,
        "meta_rev_at_epoch": 523,
        "meta_bstar": 0.0011153132,
        "meta_mean_motion_dot": 0.00065776,
        "meta_mean_motion_ddot": 0,
        "tle_line1": "1 66579U 25268Y   25350.64387064  .00065776  00000+0  11153-2 0  9992",
        "tle_line2": "2 66579  43.0000  98.2605 0000652 323.6291  36.4525 15.50637405  5232"
      },
      "geometry": {
        "type": "Point",
        "coordinates": [
          110.49620191572652,
          16.609133455880063
        ]
      }
    },
    {
      "type": "Feature",
      "properties": {
        "norad_id": 66580,
        "name": "STARLINK-35872",
        "group": "last-30-days",
        "lat": 17.59194770320478,
        "lon": 111.71964585167817,
        "alt_km": 411.9472109192693,
        "timestamp": "2025-12-17T17:50:17.972572+00:00",
        "meta_object_name": "STARLINK-35872",
        "meta_object_id": "2025-268Z",
        "meta_epoch": "2025-12-17T06:54:15.241824",
        "meta_mean_motion": 15.50621866,
        "meta_eccentricity": 0.00011639,
        "meta_inclination": 42.9989,
        "meta_ra_of_asc_node": 94.4924,
        "meta_arg_of_pericenter": 290.995,
        "meta_mean_anomaly": 69.0786,
        "meta_ephemeris_type": 0,
        "meta_classification_type": "U",
        "meta_norad_cat_id": 66580,
        "meta_element_set_no": 999,
        "meta_rev_at_epoch": 533,
        "meta_bstar": 0.0013709154,
        "meta_mean_motion_dot": 0.00081044,
        "meta_mean_motion_ddot": 0,
        "tle_line1": "1 66580U 25268Z   25351.28767641  .00081044  00000+0  13709-2 0  9993",
        "tle_line2": "2 66580  42.9989  94.4924 0001163 290.9950  69.0786 15.50621866  5332"
      },
      "geometry": {
        "type": "Point",
        "coordinates": [
          111.71964585167817,
          17.59194770320478
        ]
      }
    },
    {
      "type": "Feature",
      "properties": {
        "norad_id": 66581,
        "name": "STARLINK-35744",
        "group": "last-30-days",
        "lat": 19.020485168592717,
        "lon": 113.52900110411466,
        "alt_km": 411.9437101663452,
        "timestamp": "2025-12-17T17:50:17.972582+00:00",
        "meta_object_name": "STARLINK-35744",
        "meta_object_id": "2025-268AA",
        "meta_epoch": "2025-12-16T15:26:10.599936",
        "meta_mean_motion": 15.50613562,
        "meta_eccentricity": 0.00021018,
        "meta_inclination": 43.001,
        "meta_ra_of_asc_node": 98.255,
        "meta_arg_of_pericenter": 273.5265,
        "meta_mean_anomaly": 86.5355,
        "meta_ephemeris_type": 0,
        "meta_classification_type": "U",
        "meta_norad_cat_id": 66581,
        "meta_element_set_no": 999,
        "meta_rev_at_epoch": 523,
        "meta_bstar": 0.0010897857,
        "meta_mean_motion_dot": 0.00064198,
        "meta_mean_motion_ddot": 0,
        "tle_line1": "1 66581U 25268AA  25350.64317824  .00064198  00000+0  10898-2 0  9994",
        "tle_line2": "2 66581  43.0010  98.2550 0002101 273.5265  86.5355 15.50613562  5235"
      },
      "geometry": {
        "type": "Point",
        "coordinates": [
          113.52900110411466,
          19.020485168592717
        ]
      }
    }
  ]
}